[{"OBJECT_NAME":"STARLINK-5959","OBJECT_ID":"2023-064G","EPOCH":"2026-03-09T22:33:03.362400","MEAN_MOTION":14.98327857,"ECCENTRICITY":0.00032927,"INCLINATION":70.0003,"RA_OF_ASC_NODE":143.8225,"ARG_OF_PERICENTER":267.2953,"MEAN_ANOMALY":92.7829,"EPHEMERIS_TYPE":0,"CLASSIFICATION_TYPE":"U","NORAD_CAT_ID":56454,"ELEMENT_SET_NO":999,"REV_AT_EPOCH":15528,"BSTAR":-7.171631e-6,"MEAN_MOTION_DOT":-1.79e-6,"MEAN_MOTION_DDOT":0},{"OBJECT_NAME":"IKONOS 2","OBJECT_ID":"1999-051A","EPOCH":"2026-03-09T15:19:40.153152","MEAN_MOTION":14.96976552,"ECCENTRICITY":0.0006412,"INCLINATION":98.1486,"RA_OF_ASC_NODE":313.4587,"ARG_OF_PERICENTER":157.8343,"MEAN_ANOMALY":202.3156,"EPHEMERIS_TYPE":0,"CLASSIFICATION_TYPE":"U","NORAD_CAT_ID":25919,"ELEMENT_SET_NO":999,"REV_AT_EPOCH":42402,"BSTAR":0.00024901,"MEAN_MOTION_DOT":2.801e-5,"MEAN_MOTION_DDOT":0}]
